#dP2021  3 15  0  0  0.00000000      97 __u+U IGS14 FIT  IAC
## 2149  86400.00000000   900.00000000 59288 0.0000000000000
+  123   C01C02C03C04C05C06C07C08C09C10C11C12C13C14C16C19C20
+        C21C22C23C24C25C26C27C28C29C30C32C33C34C35C36C37C38
+        C39C40C41C42C43C44C45C46C60E01E02E03E04E05E07E08E09
+        E11E12E13E14E15E18E19E21E24E25E26E27E30E31E33G01G02
+        G03G04G05G06G07G08G09G10G11G12G13G14G15G16G17G18G19
+        G20G21G22G23G24G25G26G27G28G29G30G31G32J01J02J03J07
+        R01R02R03R04R05R07R08R09R11R12R13R14R15R16R17R18R19
+        R20R21R22R24  0  0  0  0  0  0  0  0  0  0  0  0  0
++         0  0  0  0  0  0  0  0  0  0  0  0  0  0  0  0  0
++         0  0  0  0  0  0  0  0  0  0  0  0  0  0  0  0  0
++         0  0  0  0  0  0  0  0  0  0  0  0  0  0  0  0  0
++         0  0  0  0  0  0  0  0  0  0  0  0  0  0  0  0  0
++         0  0  0  0  0  0  0  0  0  0  0  0  0  0  0  0  0
++         0  0  0  0  0  0  0  0  0  0  0  0  0  0  0  0  0
++         0  0  0  0  0  0  0  0  0  0  0  0  0  0  0  0  0
++         0  0  0  0  0  0  0  0  0  0  0  0  0  0  0  0  0
%c M  cc GPS ccc cccc cccc cccc cccc ccccc ccccc ccccc ccccc
%c cc cc ccc ccc cccc cccc cccc cccc ccccc ccccc ccccc ccccc
%f  1.2500000  1.025000000  0.00000000000  0.000000000000000
%f  0.0000000  0.000000000  0.00000000000  0.000000000000000
%i    0    0    0    0      0      0      0      0         0
%i    0    0    0    0      0      0      0      0         0
/* INFORMATION & ANALYSIS CENTER (IAC)            FINAL DATA
/* S/V CLOCKS ARE ALIGNED TO GNSS TIME                      
/* G:C1WC2W R:C1PC2P E:C1XC5X C:C2IC6I J:C1CC2S             
/* PCV:IGS14_2134 OL/AL:FES2004  NONE     YN ORB:CoN CLK:CoN
*  2021 03 15  0  0  0.00000000
PC01 -34370.286668  24434.455015      1.158545   -655.084267
PC02   4461.415591  41938.334571    203.642354    438.706404
PC03 -14731.388568  39541.641911   -675.056550   -487.845634
PC04 -39620.076711  14407.867194   -707.513865    628.657297
PC05  21974.766889  36013.265810    251.768403   -934.511862
PC06 -16781.685248  21389.389932  32560.424293    177.701138
PC07 -21665.146867  36450.788824  -1541.496910    -17.851656
PC08  -5660.193142  29545.583248 -29261.261910   -900.738429
PC09    -72.815871  24864.208045  34361.550129    668.203596
PC10 -10685.552949  38459.202776 -14041.300135    -71.665632
PC11 -24836.529077   1480.806499 -12608.934110   -868.606306
PC12 -25557.858553 -10207.331691   4698.660068    865.282975
PC13   4892.386467  37599.703234 -18059.310857    180.365154
PC14 -22614.740709  12143.702093 -10985.989396    212.339150
PC16 -12252.403799  22197.440856  33758.525566   -734.924987
PC19  20454.883190 -18860.973760   2066.402588    761.794456
PC20  21405.894395  -4790.250268  17254.354278   -929.857428
PC21  -9595.113216 -12812.494607 -22835.616806   -885.236690
PC22   7597.557317 -22375.922300 -14815.550357   -916.930453
PC23   1151.151214  26692.615358   8047.609165   -877.730921
PC24 -17237.205280  -6280.938934  21021.928243   -783.090547
PC25 -10744.392126  15480.909667  20568.060982   -948.432904
PC26 -13796.605741 -22209.347566   9794.536168    935.356122
PC27  19706.993076  14857.273199 -13063.028583    498.712654
PC28    569.841531  16350.781805 -22603.122251    -98.389261
PC29  18505.372972  -8992.692141  18850.926106    365.049891
PC30  27398.476228   3954.795921   3636.821392    452.397255
PC32   9690.236224  12787.606691  22851.930217   -912.651276
PC33 -20373.355381  18968.386022  -2083.409286   -947.342479
PC34 -27328.919697  -3526.730539  -4318.729398   -718.903757
PC35   -723.498739 -16326.330337  22612.743774   -374.499083
PC36  11270.893472 -14921.844668 -20695.999539   -741.879401
PC37  12884.625858  23022.241802  -9051.371418   -876.549566
PC38  -4538.698839  32599.621269 -26265.325828    135.848820
PC39 -10880.547830  22900.653982  33684.871844     29.374838
PC40 -17214.688396  35901.780360 -14100.575402    140.978989
PC41  -7719.541014  22492.607798  14648.870951   -932.349054
PC42 -21215.913910   4198.930224 -17595.669252   -939.914917
PC43 -18940.163508   8724.361974 -18535.888922   -639.745002
PC44 -19983.805452 -14318.620771  13163.047491     86.107051
PC45  -1310.906284 -26713.127898  -8008.917406    386.864364
PC46  17088.115658   5193.833027 -21432.594784    362.723540
PC60   7294.885620  41497.411883  -1841.897619     -0.290552
PE01  16921.868675 -12554.900289 -20797.604489  -1065.653001
PE02 -16898.156257  12651.659554  20734.793673    205.052365
PE03 -27788.439752  10144.168453   1205.112684   -408.945560
PE04  15082.452826 -18253.628038 -17757.084949   -729.035983
PE05 -24365.874599  -4050.683662 -16308.428813   -297.004055
PE07   6768.504628  15744.157915  24141.351030   -512.819367
PE08 -14723.320634  18284.690263  18038.920329   6033.098166
PE09  -6998.329395 -15494.556995 -24226.103858   5734.622183
PE11 -14717.783452 -22903.427883  11589.792325   6206.828025
PE12   4165.164396 -17063.177813  23826.790598   5310.024607
PE13  14510.031115  22857.791474 -11969.887665    413.551134
PE14  18919.207769  14150.504374 -18420.802098  -1361.988245
PE15  -3989.972615  17057.169304 -23851.114878    824.635184
PE18 -27123.960308  -2818.173285   4655.747368  -1489.353456
PE19  28283.308166  -8686.168399    978.676372    226.972282
PE21  14708.534001   8979.125691 -24071.468506   -653.638202
PE24  -3304.972566 -26465.550723  12851.720736   -793.041863
PE25 -14633.022411  -9203.486040  24029.138066   -528.478467
PE26  24502.033580  14770.874327   7609.239177   2041.357600
PE27   3904.645431  26058.350898 -13474.954278     10.326524
PE30  -9738.938466  27341.798300   5744.612865   3106.553728
PE31   9124.749752 -27720.726324  -4971.335800   -479.175539
PE33  20127.617427  -1219.063925  21683.812363   -466.536099
PG01  19618.284949  10460.197262  14542.156413    741.088513
PG02 -12666.119430 -22372.199492   7242.575206   -586.165040
PG03  16051.065451   -632.377058  21052.937739   -108.234977
PG04  25779.980467   2180.388379   6142.398283   -186.203956
PG05  -7603.163396 -17182.232893 -18852.755532    -36.236698
PG06  -1695.357067 -20752.368333  16520.557698      0.899600
PG07  15456.761689  -4116.474946 -20934.661751     90.065842
PG08  22303.408472   6233.647551 -13272.589616    -13.752967
PG09  25211.767314  -6861.521535  -4891.005864   -331.092254
PG10 -11569.878030  23661.249262  -1891.846190    -81.105966
PG11  24540.607799   8824.183923   3439.716849      1.275310
PG12 -14356.635880  -4289.093722  21668.526646    -14.005827
PG13 -13874.318107 -13056.680869 -18692.972199    107.901244
PG14  13454.854346 -22687.372148  -3064.900407     99.864278
PG15 -23065.047355  -4603.625922 -13029.868958   -163.099678
PG16   3534.925016  19167.993665 -18063.862374   -294.107151
PG17  13488.777597 -13412.498016  18963.520877    409.766696
PG18 -12895.050988   7867.116136 -21853.404188    350.494414
PG19   4859.315571 -14413.980652  21477.881940    -26.287052
PG20 -15298.042710  16082.289583 -14361.362069    524.198338
PG21  20815.769239  15004.363430   8435.462167    103.167830
PG22  13442.142954   9315.445998  21146.953752   -660.332580
PG23 -16075.122018  17261.707635 -12188.045567    117.489973
PG24 -20837.208837 -13806.161495   9291.550770      1.071713
PG25 -17282.071672  10828.399039  16602.210655     98.935107
PG26  -2283.951409  24681.035618  -9225.443662     58.137093
PG27  11405.465984  12688.547369 -20617.258952    -94.089235
PG28  12490.139967 -23556.275904    559.771939    602.061109
PG29 -25571.344606   4776.793880  -5510.676753   -311.934215
PG30   6384.304023 -16299.329812 -19865.485407   -398.500035
PG31   3281.942385  21964.394526  14134.093267   -105.625137
PG32 -11176.036734  14853.580827  19008.576228     21.169842
PJ01 -29478.564911  29972.359927   8204.390847   -355.102795
PJ02 -28362.269744  25729.023033  22502.207824      3.376349
PJ03 -30293.454397  15817.237011 -20096.881118     -1.760689
PJ07 -25395.193540  33656.693182     54.495332     -0.030995
PR01  -1759.117524 -12057.505227 -22403.376231     76.402247
PR02 -18443.806347   2715.743058 -17335.846444    470.765556
PR03 -21336.374876  13821.541283  -1683.212574     32.410536
PR04 -12241.295573  16859.702009  14741.259532     77.919890
PR05   3688.064337  10516.210868  22956.431299     68.171003
PR07  21285.373101 -14055.427474   1162.721092    -42.549624
PR08  12229.201592 -16911.383152 -14624.342195    -57.922648
PR09  11377.126554   7624.569902 -21521.493404    -17.089860
PR11   1559.799320 -24040.005742  -8366.815167      2.283354
PR12  -6632.058803 -22658.332699   9710.973391    212.613414
PR13 -11096.442508  -8160.384113  21448.425302    -52.005758
PR14  -9028.334607  11749.053942  20771.394686     62.021493
PR15  -1781.317682  24162.374363   7986.622955    104.916417
PR16   7586.257624  21880.711627 -10570.658126    -12.502996
PR17 -17415.630256   1066.950956 -18609.428934    408.026807
PR18  -1990.173855  10561.643567 -23120.173282     69.804064
PR19  13380.058410  14797.930307 -15894.903057   -135.733497
PR20  23126.059500  10388.829973   3056.040399    -45.242199
PR21  16515.774323  -1729.599368  19357.703178   -194.417143
PR22   1037.901444 -10920.990916  23007.911606   -102.627415
PR24 -23314.661301  -9664.027238  -3704.343086     35.022824
EOF
